{"fetched_at":"2026-03-29T16:36:15Z","count":15609,"tles":[{"name":"STARLINK-35933","line1":"1 66529U 25265P   26087.67809337  .00030858  00000+0  11247-2 0  9994","line2":"2 66529  43.0039 171.0320 0001701 283.1662  76.9000 15.27623196 20017","category":"Starlink"}]}