{
  "norad_id": 66529,
  "name": "STARLINK-35933",
  "history": [
    {
      "epoch": "2026-03-28T16:16:27.267168",
      "apogee_km": 484.08682047781167,
      "perigee_km": 481.7526889698547,
      "latitude_deg": -16.906337161736896,
      "longitude_deg": 177.99696352006868,
      "semi_major_axis_km": 6861.0567547238325,
      "eccentricity": 0.0001701,
      "inclination_deg": 43.0039,
      "raan_deg": 171.032,
      "arg_perigee_deg": 283.1662,
      "mean_anomaly_deg": 76.9,
      "mean_motion_rev_day": 15.27623196
    }
  ]
}